[{"OBJECT_NAME":"CORVUS BC4","OBJECT_ID":"2018-099K","EPOCH":"2026-03-09T15:49:18.108768","MEAN_MOTION":15.1161571,"ECCENTRICITY":0.00080458,"INCLINATION":97.4206,"RA_OF_ASC_NODE":114.5457,"ARG_OF_PERICENTER":356.5821,"MEAN_ANOMALY":3.5354,"EPHEMERIS_TYPE":0,"CLASSIFICATION_TYPE":"U","NORAD_CAT_ID":43767,"ELEMENT_SET_NO":999,"REV_AT_EPOCH":39736,"BSTAR":0.00033979895,"MEAN_MOTION_DOT":5.714e-5,"MEAN_MOTION_DDOT":0},{"OBJECT_NAME":"STARLINK-3917","OBJECT_ID":"2022-051BE","EPOCH":"2026-03-09T12:33:35.622144","MEAN_MOTION":15.08839707,"ECCENTRICITY":0.00013509,"INCLINATION":53.2164,"RA_OF_ASC_NODE":119.8689,"ARG_OF_PERICENTER":94.3359,"MEAN_ANOMALY":265.7788,"EPHEMERIS_TYPE":0,"CLASSIFICATION_TYPE":"U","NORAD_CAT_ID":52588,"ELEMENT_SET_NO":999,"REV_AT_EPOCH":21156,"BSTAR":8.421994e-6,"MEAN_MOTION_DOT":-1.54e-6,"MEAN_MOTION_DDOT":0}]
